[{"OBJECT_NAME":"FLOCK 4BE-12","OBJECT_ID":"2024-149CW","EPOCH":"2026-03-03T18:36:45.056736","MEAN_MOTION":15.45215719,"ECCENTRICITY":0.0005689,"INCLINATION":97.3775,"RA_OF_ASC_NODE":146.6463,"ARG_OF_PERICENTER":281.9604,"MEAN_ANOMALY":78.1007,"EPHEMERIS_TYPE":0,"CLASSIFICATION_TYPE":"U","NORAD_CAT_ID":60560,"ELEMENT_SET_NO":999,"REV_AT_EPOCH":8615,"BSTAR":0.0027894,"MEAN_MOTION_DOT":0.0013457,"MEAN_MOTION_DDOT":0},{"OBJECT_NAME":"FLOCK 4BE-3","OBJECT_ID":"2024-149CX","EPOCH":"2026-03-03T16:18:01.169280","MEAN_MOTION":15.37924137,"ECCENTRICITY":0.0003109,"INCLINATION":97.3757,"RA_OF_ASC_NODE":145.837,"ARG_OF_PERICENTER":307.0902,"MEAN_ANOMALY":53.0058,"EPHEMERIS_TYPE":0,"CLASSIFICATION_TYPE":"U","NORAD_CAT_ID":60561,"ELEMENT_SET_NO":999,"REV_AT_EPOCH":8610,"BSTAR":0.00061145,"MEAN_MOTION_DOT":0.00022761,"MEAN_MOTION_DDOT":0},{"OBJECT_NAME":"FLOCK 4BE-19","OBJECT_ID":"2024-149CZ","EPOCH":"2026-03-03T18:13:16.073184","MEAN_MOTION":15.40026888,"ECCENTRICITY":0.0003158,"INCLINATION":97.3796,"RA_OF_ASC_NODE":146.9996,"ARG_OF_PERICENTER":313.3149,"MEAN_ANOMALY":46.7833,"EPHEMERIS_TYPE":0,"CLASSIFICATION_TYPE":"U","NORAD_CAT_ID":60563,"ELEMENT_SET_NO":999,"REV_AT_EPOCH":8617,"BSTAR":0.00068373,"MEAN_MOTION_DOT":0.00027286,"MEAN_MOTION_DDOT":0},{"OBJECT_NAME":"PELICAN-2","OBJECT_ID":"2025-009Y","EPOCH":"2026-03-03T17:58:58.669824","MEAN_MOTION":15.40266355,"ECCENTRICITY":0.000754,"INCLINATION":97.4025,"RA_OF_ASC_NODE":152.9843,"ARG_OF_PERICENTER":220.9333,"MEAN_ANOMALY":139.1348,"EPHEMERIS_TYPE":0,"CLASSIFICATION_TYPE":"U","NORAD_CAT_ID":62631,"ELEMENT_SET_NO":999,"REV_AT_EPOCH":6332,"BSTAR":0.0020943,"MEAN_MOTION_DOT":0.00085108,"MEAN_MOTION_DDOT":0},{"OBJECT_NAME":"PELICAN-3","OBJECT_ID":"2025-188A","EPOCH":"2026-03-03T19:54:40.552128","MEAN_MOTION":15.40671816,"ECCENTRICITY":0.0003234,"INCLINATION":97.2232,"RA_OF_ASC_NODE":140.443,"ARG_OF_PERICENTER":204.981,"MEAN_ANOMALY":155.128,"EPHEMERIS_TYPE":0,"CLASSIFICATION_TYPE":"U","NORAD_CAT_ID":65315,"ELEMENT_SET_NO":999,"REV_AT_EPOCH":2909,"BSTAR":0.00011107,"MEAN_MOTION_DOT":4.447e-5,"MEAN_MOTION_DDOT":0},{"OBJECT_NAME":"PELICAN-4","OBJECT_ID":"2025-188B","EPOCH":"2026-03-03T15:36:35.923392","MEAN_MOTION":15.40597242,"ECCENTRICITY":0.0006008,"INCLINATION":97.2308,"RA_OF_ASC_NODE":140.3551,"ARG_OF_PERICENTER":111.7292,"MEAN_ANOMALY":248.4594,"EPHEMERIS_TYPE":0,"CLASSIFICATION_TYPE":"U","NORAD_CAT_ID":65316,"ELEMENT_SET_NO":999,"REV_AT_EPOCH":2906,"BSTAR":0.00031636,"MEAN_MOTION_DOT":0.00012803,"MEAN_MOTION_DDOT":0}]
