FLOCK 4BE-12            
1 60560U 24149CW  26062.77552149  .00134570  00000+0  27894-2 0  9994
2 60560  97.3775 146.6463 0005689 281.9604  78.1007 15.45215719 86158
FLOCK 4BE-3             
1 60561U 24149CX  26062.67918020  .00022761  00000+0  61145-3 0  9994
2 60561  97.3757 145.8370 0003109 307.0902  53.0058 15.37924137 86108
FLOCK 4BE-19            
1 60563U 24149CZ  26062.75921381  .00027286  00000+0  68373-3 0  9996
2 60563  97.3796 146.9996 0003158 313.3149  46.7833 15.40026888 86173
PELICAN-2               
1 62631U 25009Y   26062.74929016  .00085108  00000+0  20943-2 0  9999
2 62631  97.4025 152.9843 0007540 220.9333 139.1348 15.40266355 63327
PELICAN-3               
1 65315U 25188A   26062.82963602  .00004447  00000+0  11107-3 0  9997
2 65315  97.2232 140.4430 0003234 204.9810 155.1280 15.40671816 29090
PELICAN-4               
1 65316U 25188B   26062.65041578  .00012803  00000+0  31636-3 0  9992
2 65316  97.2308 140.3551 0006008 111.7292 248.4594 15.40597242 29060
